[{"OBJECT_NAME":"JILIN-1 06","OBJECT_ID":"2017-074C","EPOCH":"2026-03-09T22:46:57.173376","MEAN_MOTION":15.32444387,"ECCENTRICITY":0.00061285,"INCLINATION":97.4715,"RA_OF_ASC_NODE":171.0354,"ARG_OF_PERICENTER":223.0031,"MEAN_ANOMALY":137.0732,"EPHEMERIS_TYPE":0,"CLASSIFICATION_TYPE":"U","NORAD_CAT_ID":43024,"ELEMENT_SET_NO":999,"REV_AT_EPOCH":45863,"BSTAR":0.00028431628,"MEAN_MOTION_DOT":8.833e-5,"MEAN_MOTION_DDOT":0},{"OBJECT_NAME":"STARLINK-35575","OBJECT_ID":"2025-240V","EPOCH":"2026-03-09T06:49:49.922112","MEAN_MOTION":15.30200551,"ECCENTRICITY":0.00011551,"INCLINATION":53.1591,"RA_OF_ASC_NODE":64.8826,"ARG_OF_PERICENTER":90.4832,"MEAN_ANOMALY":269.6301,"EPHEMERIS_TYPE":0,"CLASSIFICATION_TYPE":"U","NORAD_CAT_ID":66165,"ELEMENT_SET_NO":999,"REV_AT_EPOCH":2192,"BSTAR":0.0012026056,"MEAN_MOTION_DOT":0.00035429,"MEAN_MOTION_DDOT":0}]
